{"fetched_at":"2026-07-08T07:03:33.083Z","source":"https://celestrak.org/NORAD/elements/gp.php?GROUP=kuiper&FORMAT=JSON","constellation":"kuiper","records":[{"OBJECT_NAME":"KUIPER-00272","OBJECT_ID":"2026-072R","EPOCH":"2026-07-07T02:45:31.273056","CLASSIFICATION_TYPE":"U","MEAN_MOTION":14.79950792,"ECCENTRICITY":0.00012243,"INCLINATION":51.8956,"RA_OF_ASC_NODE":105.0104,"ARG_OF_PERICENTER":125.7107,"MEAN_ANOMALY":234.397,"EPHEMERIS_TYPE":0,"NORAD_CAT_ID":68588,"ELEMENT_SET_NO":999,"REV_AT_EPOCH":1410,"BSTAR":0.00045365659,"MEAN_MOTION_DOT":0.0000324,"MEAN_MOTION_DDOT":0},{"OBJECT_NAME":"KUIPER-00285","OBJECT_ID":"2026-072S","EPOCH":"2026-07-07T18:00:02.998944","CLASSIFICATION_TYPE":"U","MEAN_MOTION":14.84682886,"ECCENTRICITY":0.0005597,"INCLINATION":51.9016,"RA_OF_ASC_NODE":82.3667,"ARG_OF_PERICENTER":89.7815,"MEAN_ANOMALY":257.6745,"EPHEMERIS_TYPE":0,"NORAD_CAT_ID":68589,"ELEMENT_SET_NO":999,"REV_AT_EPOCH":442,"BSTAR":-0.005254,"MEAN_MOTION_DOT":-0.00044852,"MEAN_MOTION_DDOT":0},{"OBJECT_NAME":"KUIPER-00286","OBJECT_ID":"2026-072T","EPOCH":"2026-07-07T18:00:02.998944","CLASSIFICATION_TYPE":"U","MEAN_MOTION":14.98247453,"ECCENTRICITY":0.0005597,"INCLINATION":51.8898,"RA_OF_ASC_NODE":79.828,"ARG_OF_PERICENTER":49.2908,"MEAN_ANOMALY":262.6415,"EPHEMERIS_TYPE":0,"NORAD_CAT_ID":68590,"ELEMENT_SET_NO":999,"REV_AT_EPOCH":544,"BSTAR":-0.0014032,"MEAN_MOTION_DOT":-0.00017083,"MEAN_MOTION_DDOT":0},{"OBJECT_NAME":"KUIPER-00289","OBJECT_ID":"2026-072U","EPOCH":"2026-07-07T03:08:51.117216","CLASSIFICATION_TYPE":"U","MEAN_MOTION":14.79934498,"ECCENTRICITY":0.00006857,"INCLINATION":51.8988,"RA_OF_ASC_NODE":89.9633,"ARG_OF_PERICENTER":116.622,"MEAN_ANOMALY":243.4813,"EPHEMERIS_TYPE":0,"NORAD_CAT_ID":68591,"ELEMENT_SET_NO":999,"REV_AT_EPOCH":1431,"BSTAR":0.0004033031,"MEAN_MOTION_DOT":0.00002855,"MEAN_MOTION_DDOT":0},{"OBJECT_NAME":"KUIPER-00290","OBJECT_ID":"2026-072V","EPOCH":"2026-07-07T18:00:02.998944","CLASSIFICATION_TYPE":"U","MEAN_MOTION":14.83876155,"ECCENTRICITY":0.0009139,"INCLINATION":51.9046,"RA_OF_ASC_NODE":85.6614,"ARG_OF_PERICENTER":101.9802,"MEAN_ANOMALY":218.5153,"EPHEMERIS_TYPE":0,"NORAD_CAT_ID":68592,"ELEMENT_SET_NO":999,"REV_AT_EPOCH":375,"BSTAR":-0.028553,"MEAN_MOTION_DOT":-0.00231768,"MEAN_MOTION_DDOT":0},{"OBJECT_NAME":"KUIPER-00293","OBJECT_ID":"2026-072W","EPOCH":"2026-07-07T04:30:34.488288","CLASSIFICATION_TYPE":"U","MEAN_MOTION":14.79923557,"ECCENTRICITY":0.00029477,"INCLINATION":51.8973,"RA_OF_ASC_NODE":99.6975,"ARG_OF_PERICENTER":108.5709,"MEAN_ANOMALY":251.5574,"EPHEMERIS_TYPE":0,"NORAD_CAT_ID":68593,"ELEMENT_SET_NO":999,"REV_AT_EPOCH":1418,"BSTAR":0.000071974571,"MEAN_MOTION_DOT":0.00000327,"MEAN_MOTION_DDOT":0},{"OBJECT_NAME":"KUIPER-00294","OBJECT_ID":"2026-072X","EPOCH":"2026-07-07T18:00:02.998944","CLASSIFICATION_TYPE":"U","MEAN_MOTION":14.80297732,"ECCENTRICITY":0.0001423,"INCLINATION":51.8979,"RA_OF_ASC_NODE":84.6897,"ARG_OF_PERICENTER":263.8557,"MEAN_ANOMALY":158.5562,"EPHEMERIS_TYPE":0,"NORAD_CAT_ID":68594,"ELEMENT_SET_NO":999,"REV_AT_EPOCH":532,"BSTAR":-0.0064074,"MEAN_MOTION_DOT":-0.00049137,"MEAN_MOTION_DDOT":0},{"OBJECT_NAME":"KUIPER-00296","OBJECT_ID":"2026-072Y","EPOCH":"2026-07-06T23:07:55.464960","CLASSIFICATION_TYPE":"U","MEAN_MOTION":15.38816181,"ECCENTRICITY":0.00093921,"INCLINATION":51.8697,"RA_OF_ASC_NODE":81.1988,"ARG_OF_PERICENTER":98.166,"MEAN_ANOMALY":262.0393,"EPHEMERIS_TYPE":0,"NORAD_CAT_ID":68595,"ELEMENT_SET_NO":999,"REV_AT_EPOCH":1442,"BSTAR":0.00060107327,"MEAN_MOTION_DOT":0.00023142,"MEAN_MOTION_DDOT":0},{"OBJECT_NAME":"KUIPER-00297","OBJECT_ID":"2026-072Z","EPOCH":"2026-07-07T02:42:08.560512","CLASSIFICATION_TYPE":"U","MEAN_MOTION":14.76353816,"ECCENTRICITY":0.00011976,"INCLINATION":51.8992,"RA_OF_ASC_NODE":99.5895,"ARG_OF_PERICENTER":120.3694,"MEAN_ANOMALY":239.7385,"EPHEMERIS_TYPE":0,"NORAD_CAT_ID":68596,"ELEMENT_SET_NO":999,"REV_AT_EPOCH":1418,"BSTAR":0.00029476455,"MEAN_MOTION_DOT":0.00001851,"MEAN_MOTION_DDOT":0},{"OBJECT_NAME":"KUIPER-00300","OBJECT_ID":"2026-072AA","EPOCH":"2026-07-07T02:31:20.886240","CLASSIFICATION_TYPE":"U","MEAN_MOTION":14.76469117,"ECCENTRICITY":0.00019544,"INCLINATION":51.9022,"RA_OF_ASC_NODE":96.6863,"ARG_OF_PERICENTER":113.4062,"MEAN_ANOMALY":246.7104,"EPHEMERIS_TYPE":0,"NORAD_CAT_ID":68597,"ELEMENT_SET_NO":999,"REV_AT_EPOCH":1422,"BSTAR":0.00028118089,"MEAN_MOTION_DOT":0.00001761,"MEAN_MOTION_DDOT":0},{"OBJECT_NAME":"KUIPER-00301","OBJECT_ID":"2026-072AB","EPOCH":"2026-07-06T23:12:05.942016","CLASSIFICATION_TYPE":"U","MEAN_MOTION":15.38599628,"ECCENTRICITY":0.0009662,"INCLINATION":51.8656,"RA_OF_ASC_NODE":81.1735,"ARG_OF_PERICENTER":95.2704,"MEAN_ANOMALY":264.9385,"EPHEMERIS_TYPE":0,"NORAD_CAT_ID":68598,"ELEMENT_SET_NO":999,"REV_AT_EPOCH":1442,"BSTAR":0.00075248814,"MEAN_MOTION_DOT":0.0002889,"MEAN_MOTION_DDOT":0},{"OBJECT_NAME":"KUIPER-00304","OBJECT_ID":"2026-072AC","EPOCH":"2026-07-07T02:37:45.217632","CLASSIFICATION_TYPE":"U","MEAN_MOTION":15.38409099,"ECCENTRICITY":0.00115454,"INCLINATION":51.8658,"RA_OF_ASC_NODE":80.641,"ARG_OF_PERICENTER":94.0772,"MEAN_ANOMALY":266.1535,"EPHEMERIS_TYPE":0,"NORAD_CAT_ID":68599,"ELEMENT_SET_NO":999,"REV_AT_EPOCH":1444,"BSTAR":0.00062133249,"MEAN_MOTION_DOT":0.00023634,"MEAN_MOTION_DDOT":0},{"OBJECT_NAME":"KUIPER-00317","OBJECT_ID":"2026-072AD","EPOCH":"2026-07-07T18:00:02.998944","CLASSIFICATION_TYPE":"U","MEAN_MOTION":14.79882233,"ECCENTRICITY":0.0000584,"INCLINATION":51.8976,"RA_OF_ASC_NODE":84.7362,"ARG_OF_PERICENTER":93.5448,"MEAN_ANOMALY":131.2131,"EPHEMERIS_TYPE":0,"NORAD_CAT_ID":68600,"ELEMENT_SET_NO":999,"REV_AT_EPOCH":499,"BSTAR":-0.00020174,"MEAN_MOTION_DOT":-0.00001757,"MEAN_MOTION_DDOT":0},{"OBJECT_NAME":"KUIPER-00320","OBJECT_ID":"2026-072AE","EPOCH":"2026-07-07T00:39:03.916224","CLASSIFICATION_TYPE":"U","MEAN_MOTION":14.79915902,"ECCENTRICITY":0.00007207,"INCLINATION":51.9017,"RA_OF_ASC_NODE":92.9201,"ARG_OF_PERICENTER":117.5882,"MEAN_ANOMALY":242.5153,"EPHEMERIS_TYPE":0,"NORAD_CAT_ID":68601,"ELEMENT_SET_NO":999,"REV_AT_EPOCH":1426,"BSTAR":-0.00042935112,"MEAN_MOTION_DOT":-0.00003491,"MEAN_MOTION_DDOT":0},{"OBJECT_NAME":"KUIPER-00299","OBJECT_ID":"2026-095A","EPOCH":"2026-07-07T08:53:25.483776","CLASSIFICATION_TYPE":"U","MEAN_MOTION":14.76465551,"ECCENTRICITY":0.00017352,"INCLINATION":51.8984,"RA_OF_ASC_NODE":159.786,"ARG_OF_PERICENTER":236.9787,"MEAN_ANOMALY":123.1007,"EPHEMERIS_TYPE":0,"NORAD_CAT_ID":68864,"ELEMENT_SET_NO":999,"REV_AT_EPOCH":1062,"BSTAR":0.00022383607,"MEAN_MOTION_DOT":0.00001358,"MEAN_MOTION_DDOT":0},{"OBJECT_NAME":"KUIPER-00353","OBJECT_ID":"2026-095B","EPOCH":"2026-07-07T18:00:02.998944","CLASSIFICATION_TYPE":"U","MEAN_MOTION":14.97561395,"ECCENTRICITY":0.0002398,"INCLINATION":51.8966,"RA_OF_ASC_NODE":145.2576,"ARG_OF_PERICENTER":357.058,"MEAN_ANOMALY":296.4483,"EPHEMERIS_TYPE":0,"NORAD_CAT_ID":68865,"ELEMENT_SET_NO":999,"REV_AT_EPOCH":547,"BSTAR":0.0012653,"MEAN_MOTION_DOT":0.00014704,"MEAN_MOTION_DDOT":0}]}
