KUIPER-00272            
1 68588U 26072R   26188.11494529  .00003240  00000+0  45366-3 0  9997
2 68588  51.8956 105.0104 0001224 125.7107 234.3970 14.79950792 14101
KUIPER-00285            
1 68589U 26072S   26188.75003471 -.00044852  00000+0 -52540-2 0  9997
2 68589  51.9016  82.3667 0005597  89.7815 257.6745 14.84682886  4427
KUIPER-00286            
1 68590U 26072T   26188.75003471 -.00017083  00000+0 -14032-2 0  9999
2 68590  51.8898  79.8280 0005597  49.2908 262.6415 14.98247453  5447
KUIPER-00289            
1 68591U 26072U   26188.13114719  .00002855  00000+0  40330-3 0  9990
2 68591  51.8988  89.9633 0000685 116.6220 243.4813 14.79934498 14317
KUIPER-00290            
1 68592U 26072V   26188.75003471 -.00231768  00000+0 -28553-1 0  9991
2 68592  51.9046  85.6614 0009139 101.9802 218.5153 14.83876155  3758
KUIPER-00293            
1 68593U 26072W   26188.18789917  .00000327  00000+0  71975-4 0  9997
2 68593  51.8973  99.6975 0002947 108.5709 251.5574 14.79923557 14188
KUIPER-00294            
1 68594U 26072X   26188.75003471 -.00049137  00000+0 -64074-2 0  9999
2 68594  51.8979  84.6897 0001423 263.8557 158.5562 14.80297732  5326
KUIPER-00296            
1 68595U 26072Y   26187.96383640  .00023142  00000+0  60107-3 0  9991
2 68595  51.8697  81.1988 0009392  98.1660 262.0393 15.38816181 14427
KUIPER-00297            
1 68596U 26072Z   26188.11259908  .00001851  00000+0  29476-3 0  9996
2 68596  51.8992  99.5895 0001197 120.3694 239.7385 14.76353816 14183
KUIPER-00300            
1 68597U 26072AA  26188.10510285  .00001761  00000+0  28118-3 0  9996
2 68597  51.9022  96.6863 0001954 113.4062 246.7104 14.76469117 14229
KUIPER-00301            
1 68598U 26072AB  26187.96673544  .00028890  00000+0  75249-3 0  9997
2 68598  51.8656  81.1735 0009662  95.2704 264.9385 15.38599628 14428
KUIPER-00304            
1 68599U 26072AC  26188.10955113  .00023634  00000+0  62133-3 0  9999
2 68599  51.8658  80.6410 0011545  94.0772 266.1535 15.38409099 14445
KUIPER-00317            
1 68600U 26072AD  26188.75003471 -.00001757  00000+0 -20174-3 0  9997
2 68600  51.8976  84.7362 0000584  93.5448 131.2131 14.79882233  4999
KUIPER-00320            
1 68601U 26072AE  26188.02712866 -.00003491  00000+0 -42935-3 0  9999
2 68601  51.9017  92.9201 0000720 117.5882 242.5153 14.79915902 14262
KUIPER-00299            
1 68864U 26095A   26188.37043384  .00001358  00000+0  22384-3 0  9999
2 68864  51.8984 159.7860 0001735 236.9787 123.1007 14.76465551 10620
KUIPER-00353            
1 68865U 26095B   26188.75003471  .00014704  00000+0  12653-2 0  9991
2 68865  51.8966 145.2576 0002398 357.0580 296.4483 14.97561395  5472
